CCSDS_OMM_VERS = 2.0
CREATION_DATE  = 
ORIGINATOR     = 

OBJECT_NAME    = STARLINK-36520
OBJECT_ID      = 2026-008X
CENTER_NAME    = EARTH
REF_FRAME      = TEME
TIME_SYSTEM    = UTC
MEAN_ELEMENT_THEORY = SGP/SGP4

EPOCH          = 2026-02-05T12:00:01.999296
MEAN_MOTION    = 15.61986847
ECCENTRICITY   = .0001037
INCLINATION    = 43.0000
RA_OF_ASC_NODE = 28.9354
ARG_OF_PERICENTER = 282.1883
MEAN_ANOMALY   = 203.9693

EPHEMERIS_TYPE = 0
CLASSIFICATION_TYPE = U
NORAD_CAT_ID   = 67466
ELEMENT_SET_NO = 999
REV_AT_EPOCH   = 462
BSTAR          = -.25993E-1
MEAN_MOTION_DOT = -.2041879E-1
MEAN_MOTION_DDOT = 0

CCSDS_OMM_VERS = 2.0
CREATION_DATE  = 
ORIGINATOR     = 

OBJECT_NAME    = STARLINK-36425
OBJECT_ID      = 2026-008Y
CENTER_NAME    = EARTH
REF_FRAME      = TEME
TIME_SYSTEM    = UTC
MEAN_ELEMENT_THEORY = SGP/SGP4

EPOCH          = 2026-02-05T12:00:01.999296
MEAN_MOTION    = 15.53788737
ECCENTRICITY   = .0001323
INCLINATION    = 42.9998
RA_OF_ASC_NODE = 29.2072
ARG_OF_PERICENTER = 260.7879
MEAN_ANOMALY   = 115.6621

EPHEMERIS_TYPE = 0
CLASSIFICATION_TYPE = U
NORAD_CAT_ID   = 67467
ELEMENT_SET_NO = 999
REV_AT_EPOCH   = 462
BSTAR          = -.33468E-1
MEAN_MOTION_DOT = -.1974099E-1
MEAN_MOTION_DDOT = 0

CCSDS_OMM_VERS = 2.0
CREATION_DATE  = 
ORIGINATOR     = 

OBJECT_NAME    = STARLINK-36414
OBJECT_ID      = 2026-008Z
CENTER_NAME    = EARTH
REF_FRAME      = TEME
TIME_SYSTEM    = UTC
MEAN_ELEMENT_THEORY = SGP/SGP4

EPOCH          = 2026-02-05T12:00:01.999296
MEAN_MOTION    = 15.60203028
ECCENTRICITY   = .0001028
INCLINATION    = 43.0000
RA_OF_ASC_NODE = 28.7083
ARG_OF_PERICENTER = 269.0310
MEAN_ANOMALY   = 307.5099

EPHEMERIS_TYPE = 0
CLASSIFICATION_TYPE = U
NORAD_CAT_ID   = 67468
ELEMENT_SET_NO = 999
REV_AT_EPOCH   = 462
BSTAR          = -.27636E-1
MEAN_MOTION_DOT = -.2026844E-1
MEAN_MOTION_DDOT = 0

CCSDS_OMM_VERS = 2.0
CREATION_DATE  = 
ORIGINATOR     = 

OBJECT_NAME    = STARLINK-36441
OBJECT_ID      = 2026-008AA
CENTER_NAME    = EARTH
REF_FRAME      = TEME
TIME_SYSTEM    = UTC
MEAN_ELEMENT_THEORY = SGP/SGP4

EPOCH          = 2026-02-05T12:00:01.999296
MEAN_MOTION    = 15.56962096
ECCENTRICITY   = .0001006
INCLINATION    = 42.9998
RA_OF_ASC_NODE = 28.8021
ARG_OF_PERICENTER = 283.0263
MEAN_ANOMALY   = 254.7280

EPHEMERIS_TYPE = 0
CLASSIFICATION_TYPE = U
NORAD_CAT_ID   = 67469
ELEMENT_SET_NO = 999
REV_AT_EPOCH   = 462
BSTAR          = -.30958E-1
MEAN_MOTION_DOT = -.2046449E-1
MEAN_MOTION_DDOT = 0

CCSDS_OMM_VERS = 2.0
CREATION_DATE  = 
ORIGINATOR     = 

OBJECT_NAME    = STARLINK-36454
OBJECT_ID      = 2026-008AB
CENTER_NAME    = EARTH
REF_FRAME      = TEME
TIME_SYSTEM    = UTC
MEAN_ELEMENT_THEORY = SGP/SGP4

EPOCH          = 2026-02-05T12:00:01.999296
MEAN_MOTION    = 15.58684256
ECCENTRICITY   = .0000871
INCLINATION    = 42.9998
RA_OF_ASC_NODE = 28.7387
ARG_OF_PERICENTER = 272.6275
MEAN_ANOMALY   = 290.7044

EPHEMERIS_TYPE = 0
CLASSIFICATION_TYPE = U
NORAD_CAT_ID   = 67470
ELEMENT_SET_NO = 999
REV_AT_EPOCH   = 462
BSTAR          = -.29292E-1
MEAN_MOTION_DOT = -.2064909E-1
MEAN_MOTION_DDOT = 0

CCSDS_OMM_VERS = 2.0
CREATION_DATE  = 
ORIGINATOR     = 

OBJECT_NAME    = STARLINK-36334
OBJECT_ID      = 2026-008AC
CENTER_NAME    = EARTH
REF_FRAME      = TEME
TIME_SYSTEM    = UTC
MEAN_ELEMENT_THEORY = SGP/SGP4

EPOCH          = 2026-02-05T12:00:01.999296
MEAN_MOTION    = 15.62229390
ECCENTRICITY   = .0001071
INCLINATION    = 43.0002
RA_OF_ASC_NODE = 28.6463
ARG_OF_PERICENTER = 265.5617
MEAN_ANOMALY   = 335.2578

EPHEMERIS_TYPE = 0
CLASSIFICATION_TYPE = U
NORAD_CAT_ID   = 67471
ELEMENT_SET_NO = 999
REV_AT_EPOCH   = 462
BSTAR          = -.25575E-1
MEAN_MOTION_DOT = -.2030047E-1
MEAN_MOTION_DDOT = 0

CCSDS_OMM_VERS = 2.0
CREATION_DATE  = 
ORIGINATOR     = 

OBJECT_NAME    = STARLINK-36269
OBJECT_ID      = 2026-008AD
CENTER_NAME    = EARTH
REF_FRAME      = TEME
TIME_SYSTEM    = UTC
MEAN_ELEMENT_THEORY = SGP/SGP4

EPOCH          = 2026-02-05T12:00:01.999296
MEAN_MOTION    = 15.60240494
ECCENTRICITY   = .000104
INCLINATION    = 43.0002
RA_OF_ASC_NODE = 28.6853
ARG_OF_PERICENTER = 260.4628
MEAN_ANOMALY   = 324.1625

EPHEMERIS_TYPE = 0
CLASSIFICATION_TYPE = U
NORAD_CAT_ID   = 67472
ELEMENT_SET_NO = 999
REV_AT_EPOCH   = 464
BSTAR          = -.27567E-1
MEAN_MOTION_DOT = -.2025041E-1
MEAN_MOTION_DDOT = 0

CCSDS_OMM_VERS = 2.0
CREATION_DATE  = 
ORIGINATOR     = 

OBJECT_NAME    = STARLINK-36408
OBJECT_ID      = 2026-008AE
CENTER_NAME    = EARTH
REF_FRAME      = TEME
TIME_SYSTEM    = UTC
MEAN_ELEMENT_THEORY = SGP/SGP4

EPOCH          = 2026-02-05T12:00:01.999296
MEAN_MOTION    = 15.57683159
ECCENTRICITY   = .0000897
INCLINATION    = 42.9999
RA_OF_ASC_NODE = 28.7566
ARG_OF_PERICENTER = 283.5813
MEAN_ANOMALY   = 272.0071

EPHEMERIS_TYPE = 0
CLASSIFICATION_TYPE = U
NORAD_CAT_ID   = 67473
ELEMENT_SET_NO = 999
REV_AT_EPOCH   = 464
BSTAR          = -.30423E-1
MEAN_MOTION_DOT = -.2064441E-1
MEAN_MOTION_DDOT = 0

CCSDS_OMM_VERS = 2.0
CREATION_DATE  = 
ORIGINATOR     = 

OBJECT_NAME    = ALSAT-3A
OBJECT_ID      = 2026-009A
CENTER_NAME    = EARTH
REF_FRAME      = TEME
TIME_SYSTEM    = UTC
MEAN_ELEMENT_THEORY = SGP/SGP4

EPOCH          = 2026-02-05T11:52:09.157152
MEAN_MOTION    = 15.23396750
ECCENTRICITY   = .0012185
INCLINATION    = 97.4681
RA_OF_ASC_NODE = 111.1693
ARG_OF_PERICENTER = 181.1901
MEAN_ANOMALY   = 178.9309

EPHEMERIS_TYPE = 0
CLASSIFICATION_TYPE = U
NORAD_CAT_ID   = 67474
ELEMENT_SET_NO = 999
REV_AT_EPOCH   = 322
BSTAR          = .4852E-3
MEAN_MOTION_DOT = .11503E-3
MEAN_MOTION_DDOT = 0

CCSDS_OMM_VERS = 2.0
CREATION_DATE  = 
ORIGINATOR     = 

OBJECT_NAME    = CZ-2C R/B
OBJECT_ID      = 2026-009B
CENTER_NAME    = EARTH
REF_FRAME      = TEME
TIME_SYSTEM    = UTC
MEAN_ELEMENT_THEORY = SGP/SGP4

EPOCH          = 2026-02-05T09:11:49.621344
MEAN_MOTION    = 15.03103008
ECCENTRICITY   = .0100269
INCLINATION    = 97.1764
RA_OF_ASC_NODE = 109.3046
ARG_OF_PERICENTER = 149.4641
MEAN_ANOMALY   = 211.2477

EPHEMERIS_TYPE = 0
CLASSIFICATION_TYPE = U
NORAD_CAT_ID   = 67475
ELEMENT_SET_NO = 999
REV_AT_EPOCH   = 322
BSTAR          = .34584E-3
MEAN_MOTION_DOT = .5149E-4
MEAN_MOTION_DDOT = 0

CCSDS_OMM_VERS = 2.0
CREATION_DATE  = 
ORIGINATOR     = 

OBJECT_NAME    = TIANQI-37
OBJECT_ID      = 2026-010A
CENTER_NAME    = EARTH
REF_FRAME      = TEME
TIME_SYSTEM    = UTC
MEAN_ELEMENT_THEORY = SGP/SGP4

EPOCH          = 2026-02-05T05:43:16.465728
MEAN_MOTION    = 14.13526259
ECCENTRICITY   = .0012971
INCLINATION    = 44.9831
RA_OF_ASC_NODE = 310.5009
ARG_OF_PERICENTER = 54.6051
MEAN_ANOMALY   = 305.5997

EPHEMERIS_TYPE = 0
CLASSIFICATION_TYPE = U
NORAD_CAT_ID   = 67476
ELEMENT_SET_NO = 999
REV_AT_EPOCH   = 289
BSTAR          = .31824E-3
MEAN_MOTION_DOT = .471E-5
MEAN_MOTION_DDOT = 0

CCSDS_OMM_VERS = 2.0
CREATION_DATE  = 
ORIGINATOR     = 

OBJECT_NAME    = TIANQI-38
OBJECT_ID      = 2026-010B
CENTER_NAME    = EARTH
REF_FRAME      = TEME
TIME_SYSTEM    = UTC
MEAN_ELEMENT_THEORY = SGP/SGP4

EPOCH          = 2026-02-05T10:43:19.055712
MEAN_MOTION    = 14.13903546
ECCENTRICITY   = .0011783
INCLINATION    = 44.9793
RA_OF_ASC_NODE = 309.5073
ARG_OF_PERICENTER = 60.9753
MEAN_ANOMALY   = 299.2265

EPHEMERIS_TYPE = 0
CLASSIFICATION_TYPE = U
NORAD_CAT_ID   = 67477
ELEMENT_SET_NO = 999
REV_AT_EPOCH   = 292
BSTAR          = .31851E-3
MEAN_MOTION_DOT = .475E-5
MEAN_MOTION_DDOT = 0

