STARLINK-36520          
1 67466U 26008X   26036.50002314 -.02041879  00000+0 -25993-1 0  9998
2 67466  43.0000  28.9354 0001037 282.1883 203.9693 15.61986847  4621
STARLINK-36425          
1 67467U 26008Y   26036.50002314 -.01974099  00000+0 -33468-1 0  9993
2 67467  42.9998  29.2072 0001323 260.7879 115.6621 15.53788737  4621
STARLINK-36414          
1 67468U 26008Z   26036.50002314 -.02026844  00000+0 -27636-1 0  9991
2 67468  43.0000  28.7083 0001028 269.0310 307.5099 15.60203028  4622
STARLINK-36441          
1 67469U 26008AA  26036.50002314 -.02046449  00000+0 -30958-1 0  9996
2 67469  42.9998  28.8021 0001006 283.0263 254.7280 15.56962096  4626
STARLINK-36454          
1 67470U 26008AB  26036.50002314 -.02064909  00000+0 -29292-1 0  9998
2 67470  42.9998  28.7387 0000871 272.6275 290.7044 15.58684256  4627
STARLINK-36334          
1 67471U 26008AC  26036.50002314 -.02030047  00000+0 -25575-1 0  9995
2 67471  43.0002  28.6463 0001071 265.5617 335.2578 15.62229390  4620
STARLINK-36269          
1 67472U 26008AD  26036.50002314 -.02025041  00000+0 -27567-1 0  9997
2 67472  43.0002  28.6853 0001040 260.4628 324.1625 15.60240494  4644
STARLINK-36408          
1 67473U 26008AE  26036.50002314 -.02064441  00000+0 -30423-1 0  9990
2 67473  42.9999  28.7566 0000897 283.5813 272.0071 15.57683159  4642
ALSAT-3A                
1 67474U 26009A   26036.49455043  .00011503  00000+0  48520-3 0  9997
2 67474  97.4681 111.1693 0012185 181.1901 178.9309 15.23396750  3220
CZ-2C R/B               
1 67475U 26009B   26036.38321321  .00005149  00000+0  34584-3 0  9991
2 67475  97.1764 109.3046 0100269 149.4641 211.2477 15.03103008  3227
TIANQI-37               
1 67476U 26010A   26036.23838502  .00000471  00000+0  31824-3 0  9999
2 67476  44.9831 310.5009 0012971  54.6051 305.5997 14.13526259  2895
TIANQI-38               
1 67477U 26010B   26036.44674833  .00000475  00000+0  31851-3 0  9992
2 67477  44.9793 309.5073 0011783  60.9753 299.2265 14.13903546  2920
